start=new Date('2022-10-29T00:00:00.000Z').valueOf();
sats=[{"CLASSIFICATION_TYPE":"U","MEAN_MOTION":"15.08842198","OBJECT_TYPE":"PAYLOAD","PERIOD":"95.437","EPHEMERIS_TYPE":"0","REV_AT_EPOCH":"130","EPOCH":"2022-10-28T22:00:01.999584","ARG_OF_PERICENTER":"47.8768","MEAN_ANOMALY":"281.8429","NORAD_CAT_ID":"52878","ECCENTRICITY":"0.00018570","MEAN_MOTION_DDOT":"0.0000000000000","TLE_LINE2":"2 52878  53.2147 125.8028 0001857  47.8768 281.8429 15.08842198  1305","RCS_SIZE":"LARGE","OBJECT_ID":"2022-062BA","REF_FRAME":"TEME","PERIAPSIS":"538.454","ELEMENT_SET_NO":"999","INCLINATION":"53.2147","BSTAR":"-0.00008156200000","GP_ID":"216410477","DECAY_DATE":null,"TLE_LINE1":"1 52878U 22062BA  22301.91668981 -.00001586  00000-0 -81562-4 0  9996","FILE":"3637111","LAUNCH_DATE":"2022-06-17","APOAPSIS":"541.023","MEAN_MOTION_DOT":"-0.00001586","RA_OF_ASC_NODE":"125.8028","CENTER_NAME":"EARTH","MEAN_ELEMENT_THEORY":"SGP4","OBJECT_NAME":"STARLINK-4171","SEMIMAJOR_AXIS":"6917.874","COUNTRY_CODE":"US","SITE":"AFETR","TIME_SYSTEM":"UTC"},{"CENTER_NAME":"EARTH","OBJECT_NAME":"STARLINK-4139","MEAN_ELEMENT_THEORY":"SGP4","SEMIMAJOR_AXIS":"6917.860","TLE_LINE1":"1 52879U 22062BB  22301.91668981 -.00009449  00000-0 -57627-3 0  9997","FILE":"3637111","LAUNCH_DATE":"2022-06-17","APOAPSIS":"540.921","MEAN_MOTION_DOT":"-0.00009449","RA_OF_ASC_NODE":"125.7948","SITE":"AFETR","TIME_SYSTEM":"UTC","COUNTRY_CODE":"US","REV_AT_EPOCH":"130","EPHEMERIS_TYPE":"0","ARG_OF_PERICENTER":"52.2878","NORAD_CAT_ID":"52879","MEAN_ANOMALY":"97.4185","EPOCH":"2022-10-28T22:00:01.999584","MEAN_MOTION":"15.08846704","CLASSIFICATION_TYPE":"U","OBJECT_TYPE":"PAYLOAD","PERIOD":"95.437","PERIAPSIS":"538.529","ELEMENT_SET_NO":"999","BSTAR":"-0.00057627000000","INCLINATION":"53.2161","DECAY_DATE":null,"GP_ID":"216411246","ECCENTRICITY":"0.00017290","MEAN_MOTION_DDOT":"0.0000000000000","TLE_LINE2":"2 52879  53.2161 125.7948 0001729  52.2878  97.4185 15.08846704  1309","RCS_SIZE":"LARGE","OBJECT_ID":"2022-062BB","REF_FRAME":"TEME"},{"MEAN_MOTION":"15.08837817","CLASSIFICATION_TYPE":"U","OBJECT_TYPE":"PAYLOAD","PERIOD":"95.438","EPHEMERIS_TYPE":"0","REV_AT_EPOCH":"130","ARG_OF_PERICENTER":"62.9551","EPOCH":"2022-10-28T22:00:01.999584","MEAN_ANOMALY":"66.6668","NORAD_CAT_ID":"52880","ECCENTRICITY":"0.00016310","TLE_LINE2":"2 52880  53.2164 125.7956 0001631  62.9551  66.6668 15.08837817  1300","MEAN_MOTION_DDOT":"0.0000000000000","RCS_SIZE":"LARGE","OBJECT_ID":"2022-062BC","REF_FRAME":"TEME","PERIAPSIS":"538.624","ELEMENT_SET_NO":"999","BSTAR":"0.00232300000000","INCLINATION":"53.2164","DECAY_DATE":null,"GP_ID":"216410302","TLE_LINE1":"1 52880U 22062BC  22301.91668981  .00036874  00000-0  23230-2 0  9991","FILE":"3637111","LAUNCH_DATE":"2022-06-17","APOAPSIS":"540.880","MEAN_MOTION_DOT":"0.00036874","RA_OF_ASC_NODE":"125.7956","CENTER_NAME":"EARTH","OBJECT_NAME":"STARLINK-4186","MEAN_ELEMENT_THEORY":"SGP4","SEMIMAJOR_AXIS":"6917.887","COUNTRY_CODE":"US","SITE":"AFETR","TIME_SYSTEM":"UTC"},{"COUNTRY_CODE":"US","SITE":"AFETR","TIME_SYSTEM":"UTC","MEAN_MOTION_DOT":"0.00027554","RA_OF_ASC_NODE":"125.7932","APOAPSIS":"540.936","LAUNCH_DATE":"2022-06-17","TLE_LINE1":"1 52881U 22062BD  22301.91668981  .00027554  00000-0  17430-2 0  9992","FILE":"3637111","MEAN_ELEMENT_THEORY":"SGP4","OBJECT_NAME":"STARLINK-4192","SEMIMAJOR_AXIS":"6917.908","CENTER_NAME":"EARTH","OBJECT_ID":"2022-062BD","REF_FRAME":"TEME","RCS_SIZE":"LARGE","MEAN_MOTION_DDOT":"0.0000000000000","TLE_LINE2":"2 52881  53.2165 125.7932 0001680  50.6587  59.0288 15.08830857  1304","ECCENTRICITY":"0.00016800","GP_ID":"216410653","DECAY_DATE":null,"ELEMENT_SET_NO":"999","PERIAPSIS":"538.611","BSTAR":"0.00174300000000","INCLINATION":"53.2165","PERIOD":"95.438","OBJECT_TYPE":"PAYLOAD","MEAN_MOTION":"15.08830857","CLASSIFICATION_TYPE":"U","ARG_OF_PERICENTER":"50.6587","EPOCH":"2022-10-28T22:00:01.999584","MEAN_ANOMALY":"59.0288","NORAD_CAT_ID":"52881","REV_AT_EPOCH":"130","EPHEMERIS_TYPE":"0"},{"TIME_SYSTEM":"UTC","SITE":"AFETR","COUNTRY_CODE":"US","SEMIMAJOR_AXIS":"6917.866","OBJECT_NAME":"STARLINK-4181","MEAN_ELEMENT_THEORY":"SGP4","CENTER_NAME":"EARTH","APOAPSIS":"541.214","RA_OF_ASC_NODE":"125.7922","MEAN_MOTION_DOT":"0.00003793","FILE":"3637111","TLE_LINE1":"1 52882U 22062BE  22301.91668981  .00003793  00000-0  25623-3 0  9996","LAUNCH_DATE":"2022-06-17","GP_ID":"216410895","DECAY_DATE":null,"BSTAR":"0.00025623000000","INCLINATION":"53.2174","ELEMENT_SET_NO":"999","PERIAPSIS":"538.248","RCS_SIZE":"LARGE","REF_FRAME":"TEME","OBJECT_ID":"2022-062BE","ECCENTRICITY":"0.00021440","TLE_LINE2":"2 52882  53.2174 125.7922 0002144  42.0174 127.6680 15.08844653  1304","MEAN_MOTION_DDOT":"0.0000000000000","EPOCH":"2022-10-28T22:00:01.999584","ARG_OF_PERICENTER":"42.0174","NORAD_CAT_ID":"52882","MEAN_ANOMALY":"127.6680","EPHEMERIS_TYPE":"0","REV_AT_EPOCH":"130","PERIOD":"95.437","MEAN_MOTION":"15.08844653","CLASSIFICATION_TYPE":"U","OBJECT_TYPE":"PAYLOAD"},{"FILE":"3637111","TLE_LINE1":"1 52986U 22076A   22301.91668981 -.00040364  00000-0 -25312-2 0  9997","LAUNCH_DATE":"2022-07-07","APOAPSIS":"540.987","RA_OF_ASC_NODE":"205.8209","MEAN_MOTION_DOT":"-0.00040364","CENTER_NAME":"EARTH","SEMIMAJOR_AXIS":"6917.836","OBJECT_NAME":"STARLINK-4260","MEAN_ELEMENT_THEORY":"SGP4","COUNTRY_CODE":"US","TIME_SYSTEM":"UTC","SITE":"AFETR","MEAN_MOTION":"15.08854683","CLASSIFICATION_TYPE":"U","OBJECT_TYPE":"PAYLOAD","PERIOD":"95.437","EPHEMERIS_TYPE":"0","REV_AT_EPOCH":"130","MEAN_ANOMALY":"125.2636","EPOCH":"2022-10-28T22:00:01.999584","NORAD_CAT_ID":"52986","ARG_OF_PERICENTER":"44.4883","ECCENTRICITY":"0.00018600","TLE_LINE2":"2 52986  53.2142 205.8209 0001860  44.4883 125.2636 15.08854683  1308","MEAN_MOTION_DDOT":"0.0000000000000","RCS_SIZE":"LARGE","REF_FRAME":"TEME","OBJECT_ID":"2022-076A","INCLINATION":"53.2142","BSTAR":"-0.00253120000000","PERIAPSIS":"538.414","ELEMENT_SET_NO":"999","GP_ID":"216411256","DECAY_DATE":null},{"PERIOD":"95.437","MEAN_MOTION":"15.08848233","CLASSIFICATION_TYPE":"U","OBJECT_TYPE":"PAYLOAD","ARG_OF_PERICENTER":"41.1184","EPOCH":"2022-10-29T00:00:02.000160","MEAN_ANOMALY":"6.5172","NORAD_CAT_ID":"52987","EPHEMERIS_TYPE":"0","REV_AT_EPOCH":"1783","RCS_SIZE":"LARGE","REF_FRAME":"TEME","OBJECT_ID":"2022-076B","ECCENTRICITY":"0.00022040","TLE_LINE2":"2 52987  53.2170 215.4456 0002204  41.1184   6.5172 15.08848233 17837","MEAN_MOTION_DDOT":"0.0000000000000","GP_ID":"216385445","DECAY_DATE":null,"INCLINATION":"53.2170","BSTAR":"-0.00149980000000","ELEMENT_SET_NO":"999","PERIAPSIS":"538.196","APOAPSIS":"541.245","RA_OF_ASC_NODE":"215.4456","MEAN_MOTION_DOT":"-0.00024084","FILE":"3637088","TLE_LINE1":"1 52987U 22076B   22302.00002315 -.00024084  00000-0 -14998-2 0  9991","LAUNCH_DATE":"2022-07-07","SEMIMAJOR_AXIS":"6917.855","MEAN_ELEMENT_THEORY":"SGP4","OBJECT_NAME":"STARLINK-4259","CENTER_NAME":"EARTH","COUNTRY_CODE":"US","TIME_SYSTEM":"UTC","SITE":"AFETR"},{"REV_AT_EPOCH":"130","EPHEMERIS_TYPE":"0","ARG_OF_PERICENTER":"41.3872","EPOCH":"2022-10-28T22:00:01.999584","MEAN_ANOMALY":"148.3419","NORAD_CAT_ID":"52988","OBJECT_TYPE":"PAYLOAD","MEAN_MOTION":"15.08869666","CLASSIFICATION_TYPE":"U","PERIOD":"95.436","BSTAR":"-0.00382240000000","INCLINATION":"53.2164","ELEMENT_SET_NO":"999","PERIAPSIS":"538.268","GP_ID":"216410663","DECAY_DATE":null,"TLE_LINE2":"2 52988  53.2164 205.8194 0002005  41.3872 148.3419 15.08869666  1305","MEAN_MOTION_DDOT":"0.0000000000000","ECCENTRICITY":"0.00020050","REF_FRAME":"TEME","OBJECT_ID":"2022-076C","RCS_SIZE":"LARGE","CENTER_NAME":"EARTH","SEMIMAJOR_AXIS":"6917.790","MEAN_ELEMENT_THEORY":"SGP4","OBJECT_NAME":"STARLINK-4291","LAUNCH_DATE":"2022-07-07","FILE":"3637111","TLE_LINE1":"1 52988U 22076C   22301.91668981 -.00060660  00000-0 -38224-2 0  9996","RA_OF_ASC_NODE":"205.8194","MEAN_MOTION_DOT":"-0.00060660","APOAPSIS":"541.042","TIME_SYSTEM":"UTC","SITE":"AFETR","COUNTRY_CODE":"US"},{"SITE":"AFETR","TIME_SYSTEM":"UTC","COUNTRY_CODE":"US","MEAN_ELEMENT_THEORY":"SGP4","OBJECT_NAME":"STARLINK-4293","SEMIMAJOR_AXIS":"6917.853","CENTER_NAME":"EARTH","APOAPSIS":"541.253","MEAN_MOTION_DOT":"-0.00011930","RA_OF_ASC_NODE":"215.8185","TLE_LINE1":"1 52989U 22076D   22301.91668981 -.00011930  00000-0 -73245-3 0  9996","FILE":"3637111","LAUNCH_DATE":"2022-07-07","DECAY_DATE":null,"GP_ID":"216410905","PERIAPSIS":"538.183","ELEMENT_SET_NO":"999","BSTAR":"-0.00073245000000","INCLINATION":"53.2179","RCS_SIZE":"LARGE","OBJECT_ID":"2022-076D","REF_FRAME":"TEME","ECCENTRICITY":"0.00022190","MEAN_MOTION_DDOT":"0.0000000000000","TLE_LINE2":"2 52989  53.2179 215.8185 0002219  32.1176 302.5684 15.08848853  1308","NORAD_CAT_ID":"52989","ARG_OF_PERICENTER":"32.1176","EPOCH":"2022-10-28T22:00:01.999584","MEAN_ANOMALY":"302.5684","REV_AT_EPOCH":"130","EPHEMERIS_TYPE":"0","PERIOD":"95.437","CLASSIFICATION_TYPE":"U","MEAN_MOTION":"15.08848853","OBJECT_TYPE":"PAYLOAD"},{"SEMIMAJOR_AXIS":"6917.755","MEAN_ELEMENT_THEORY":"SGP4","OBJECT_NAME":"STARLINK-4286","CENTER_NAME":"EARTH","RA_OF_ASC_NODE":"215.8128","MEAN_MOTION_DOT":"-0.00061158","APOAPSIS":"541.026","LAUNCH_DATE":"2022-07-07","FILE":"3637111","TLE_LINE1":"1 52990U 22076E   22301.91668981 -.00061158  00000-0 -38530-2 0  9992","TIME_SYSTEM":"UTC","SITE":"AFETR","COUNTRY_CODE":"US","NORAD_CAT_ID":"52990","EPOCH":"2022-10-28T22:00:01.999584","ARG_OF_PERICENTER":"41.0117","MEAN_ANOMALY":"313.7058","EPHEMERIS_TYPE":"0","REV_AT_EPOCH":"130","PERIOD":"95.435","OBJECT_TYPE":"PAYLOAD","CLASSIFICATION_TYPE":"U","MEAN_MOTION":"15.08880922","DECAY_DATE":null,"GP_ID":"216411540","BSTAR":"-0.00385300000000","INCLINATION":"53.2168","PERIAPSIS":"538.215","ELEMENT_SET_NO":"999","REF_FRAME":"TEME","OBJECT_ID":"2022-076E","RCS_SIZE":"LARGE","TLE_LINE2":"2 52990  53.2168 215.8128 0002032  41.0117 313.7058 15.08880922  1304","MEAN_MOTION_DDOT":"0.0000000000000","ECCENTRICITY":"0.00020320"}];
